LEMUR-2-JOHANLORAN      
1 44084U 19018G   22300.13381908  .00051319  00000+0  10627-2 0  9995
2 44084  97.2990   1.6353 0007106 359.4232   0.7008 15.45579039199033
LEMUR-2-BEAUDACIOUS     
1 44085U 19018H   22299.71343008  .00018987  00000+0  51556-3 0  9997
2 44085  97.2975 359.2470 0009259  12.4624 347.6848 15.37590404198855
LEMUR-2-ELHAM           
1 44086U 19018J   22300.11223153  .00028687  00000+0  69412-3 0  9991
2 44086  97.3020   1.4103 0008345 358.7368   1.3856 15.41049940199003
LEMUR-2-VICTOR-ANDREW   
1 44087U 19018K   22300.17846515  .00051341  00000+0  10553-2 0  9995
2 44087  97.3018   2.4066 0006644 358.1959   1.9266 15.45799786199083
LEMUR-2-LILLYJO         
1 44396U 19038L   22300.52420946  .00018448  00000+0  79407-3 0  9990
2 44396  97.6322 271.4477 0021882  33.5216 326.7399 15.22448152183140
LEMUR-2-WANLI           
1 44402U 19038S   22300.13489814  .00017781  00000+0  78541-3 0  9991
2 44402  97.6341 270.7355 0021435  36.5461 323.7232 15.21585502183069
LEMUR-2-MORAG           
1 44403U 19038T   22300.53446657  .00011118  00000+0  49324-3 0  9999
2 44403  97.6386 272.1480 0020913  34.6666 325.5928 15.21562444183152
LEMUR-2-DUSTINTHEWIND   
1 44405U 19038V   22299.81823711  .00012550  00000+0  56213-3 0  9995
2 44405  97.6346 270.2547 0022019  35.7807 324.4898 15.21177948183011
LEMUR-2-ALEX-MADDY      
1 44407U 19038X   22300.37006703  .00009140  00000+0  43803-3 0  9997
2 44407  97.6444 270.6155 0021920  41.6358 318.6540 15.18938819183015
LEMUR-2-EJATTA          
1 44409U 19038Z   22299.87555234  .00011409  00000+0  49283-3 0  9998
2 44409  97.6323 271.1250 0020956  31.4995 328.7491 15.22464003183085
LEMUR-2-GREGROBINSON    
1 44411U 19038AB  22299.50168774  .00015033  00000+0  66016-3 0  9990
2 44411  97.6385 271.0402 0022310  43.1402 317.1577 15.21804232182653
LEMUR-2-YNDRD           
1 44413U 19038AD  22299.81973999  .00011419  00000+0  54813-3 0  9995
2 44413  97.6421 269.7995 0022417  44.2674 316.0348 15.18809630182936
LEMUR-2-JPGSQUARED      
1 44855U 19089D   22299.62370079  .00007414  00000+0  52523-3 0  9996
2 44855  36.9662  38.3038 0005179 213.3818 146.6600 15.04436436157768
LEMUR-2-HIMOMANDDAD     
1 44860U 19089J   22300.54114185  .00009689  00000+0  68789-3 0  9997
2 44860  36.9666  34.5020 0005241 213.3677 146.6736 15.04245523157866
LEMUR-2-PAPPY           
1 44861U 19089K   22299.66393587  .00006292  00000+0  45035-3 0  9999
2 44861  36.9662  39.5181 0005069 208.4394 151.6073 15.04129593157694
LEMUR-2-THEODOSIA       
1 44863U 19089M   22299.67161558  .00007764  00000+0  55000-3 0  9991
2 44863  36.9656  38.6309 0005401 212.0523 147.9892 15.04415928157615
LEMUR-2-ETHANOAKES      
1 46298U 20061AC  22299.75678695  .00013868  00000+0  63879-3 0  9996
2 46298  97.4376   9.2474 0001954 106.6105 253.5345 15.20402416118430
LEMUR-2-OSCARLATOR      
1 46299U 20061AD  22300.45259714  .00017410  00000+0  78832-3 0  9996
2 46299  97.4385  10.0396 0002088 113.1328 247.0128 15.20941634118575
LEMUR-2-SCHMIDTFALL     
1 46315U 20061AV  22299.76886723  .00014573  00000+0  65000-3 0  9992
2 46315  97.4395   9.9258 0003017  85.3118 274.8462 15.21497381118541
LEMUR-2-DJUPROERA       
1 46316U 20061AW  22300.46026834  .00019203  00000+0  83576-3 0  9995
2 46316  97.4385  10.7736 0003015  81.4089 278.7489 15.22274297118669
LEMUR-2-SQUAREJAWS      
1 46317U 20061AX  22300.16982790  .00017352  00000+0  76380-3 0  9993
2 46317  97.4386  10.4161 0002971  80.1390 280.0181 15.21909396118626
LEMUR-2-URSA-AVION      
1 46318U 20061AY  22300.43510431  .00017941  00000+0  79193-3 0  9992
2 46318  97.4385  10.6657 0002980  77.5752 282.5817 15.21808504118666
LEMUR-2-SLICERS         
1 46500U 20068Q   22299.80878127  .00009593  00000+0  63371-3 0  9994
2 46500  97.7312 240.7574 0010314 198.5608 161.5224 15.07584145113883
LEMUR-2-DAYWZAGOODDAY   
1 46501U 20068R   22299.78851773  .00008206  00000+0  53828-3 0  9996
2 46501  97.7291 240.9780 0010062 201.8135 158.2664 15.07896508113884
LEMUR-2-SUSURRUS        
1 46502U 20068S   22299.80950541  .00006694  00000+0  44390-3 0  9996
2 46502  97.7295 240.7513 0010055 201.5356 158.5425 15.07568232113883
LEMUR-2-NICHOL          
1 46503U 20068T   22299.83285466  .00008461  00000+0  56066-3 0  9994
2 46503  97.7331 240.7237 0010612 207.4600 152.6064 15.07506138113885
LEMUR-2-OZARAK          
1 46908U 20081D   22300.01753276  .00007957  00000+0  57903-3 0  9990
2 46908  36.9019 162.1622 0005617  44.6073 315.5111 15.03391211107966
LEMUR-2-JINDRA          
1 46909U 20081E   22299.96483570  .00008936  00000+0  63705-3 0  9994
2 46909  36.9005 160.8205 0008299  44.7764 315.3645 15.04100657107986
LEMUR-2-WALLACE         
1 46910U 20081F   22300.32354249  .00007807  00000+0  56172-3 0  9995
2 46910  36.9014 159.0492 0005353  41.6319 318.4830 15.03821635108027
LEMUR-2-JEREMIAH        
1 46911U 20081G   22299.90969637  .00007218  00000+0  52256-3 0  9995
2 46911  36.9252 161.3401 0005813  51.5932 308.5241 15.03627789107973
LEMUR-2-NEVA            
1 47450U 21006AP  22300.42179063  .00011904  00000+0  55225-3 0  9994
2 47450  97.4302 358.0048 0010612 170.9428 189.2001 15.20146259 97323
LEMUR-2-SAOIRSEDH5GUO   
1 47453U 21006AS  22299.68581136  .00010636  00000+0  48917-3 0  9991
2 47453  97.4327 357.3879 0009150 173.7447 186.3905 15.20489010 97207
LEMUR-2-NALLYWACKER     
1 47457U 21006AW  22299.73206467  .00011341  00000+0  51807-3 0  9998
2 47457  97.4300 357.4120 0010031 173.0061 187.1316 15.20696473 97227
LEMUR-2-MANGO1          
1 47493U 21006CJ  22300.38902227  .00009768  00000+0  47261-3 0  9998
2 47493  97.4249 356.9853 0009811 175.6615 184.4707 15.18748253 97284
LEMUR-2-RUAIRI-EILIDH   
1 47511U 21006DC  22300.40266506  .00010682  00000+0  51194-3 0  9992
2 47511  97.4235 356.6292 0007488 173.5747 186.5585 15.19073208 97262
LEMUR-2-JENNIFERSONG    
1 47525U 21006DR  22299.72989603  .00011366  00000+0  51974-3 0  9995
2 47525  97.4255 357.0504 0010148 172.7153 187.4232 15.20659967 97228
LEMUR-2-CHANTAL         
1 47529U 21006DV  22300.16687336  .00010612  00000+0  51961-3 0  9997
2 47529  97.4247 356.1419 0006993 177.4880 182.6391 15.18331976 98161
LEMUR-2-NOOBNOOB        
1 47538U 21006DY  22299.81558450  .00009662  00000+0  45559-3 0  9999
2 47538  97.4310 357.2728 0010079 174.8188 185.3153 15.19646285 97213
LEMUR-2-AMANDA-SVANTE   
1 48269U 21034B   22299.74313357  .00003725  00000+0  40849-3 0  9990
2 48269  97.7363   7.8763 0003432  28.0776 332.0625 14.88310050 81054
LEMUR-2-SPECIAL-K       
1 48273U 21034F   22300.55934819  .00003966  00000+0  43460-3 0  9998
2 48273  97.7360   8.6493 0003287  20.3380 339.7967 14.88308862 81184
LEMUR-2-JACKSON         
1 48885U 21059G   22300.36646567  .00014000  00000+0  65987-3 0  9992
2 48885  97.5694  69.9263 0007399   6.9383 353.1952 15.19589913 73950
LEMUR-2-ANNABANANA      
1 48923U 21059AW  22299.62047639  .00012393  00000+0  55816-3 0  9999
2 48923  97.5630  69.6203 0010165 358.7565   1.3643 15.21165517 73894
LEMUR-2-JOHN-TREIRES    
1 48925U 21059AY  22299.84183923  .00014157  00000+0  61953-3 0  9991
2 48925  97.5711  70.5615 0012395 358.6404   1.4796 15.22095931 73952
LEMUR-2-AC-CUBED        
1 48927U 21059BA  22299.36125586  .00009928  00000+0  44881-3 0  9992
2 48927  97.5688  69.8274 0014851   4.5174 355.6192 15.21047065 73878
LEMUR-2-MERIMA          
1 48929U 21059BC  22300.16788588  .00014355  00000+0  63112-3 0  9990
2 48929  97.5638  70.7327 0014633   1.2213 358.9056 15.21904619 74010
LEMUR-2-CARLSANTAMARI   
1 48959U 21059CJ  22300.33345006  .00021787  00000+0  87878-3 0  9998
2 48959  97.5676  71.6987 0013550   2.5618 357.5686 15.24745148 74081
LEMUR-2-RAMONAMAE       
1 51021U 22002AP  22299.73725219  .00011534  00000+0  57012-3 0  9996
2 51021  97.4744   5.0393 0007726 348.0082  12.0966 15.17977755 43312
LEMUR-2-KING-JULIEN     
1 51022U 22002AQ  22299.75132620  .00010266  00000+0  51024-3 0  9995
2 51022  97.4722   4.9395 0007512 345.6511  14.4508 15.17815133 43311
LEMUR-2-ROHOVITHSA      
1 51036U 22002BE  22299.76325174  .00006157  00000+0  32358-3 0  9992
2 51036  97.4748   4.7322 0008236 351.0284   9.0801 15.16016156 43294
LEMUR-2-MIRIWARI        
1 51054U 22002BY  22300.43106904  .00006285  00000+0  33070-3 0  9991
2 51054  97.4738   5.3441 0007210 342.7021  17.3965 15.15972138 43393
LEMUR-2-DJIRANG         
1 51058U 22002CC  22300.16788021  .00008942  00000+0  46885-3 0  9991
2 51058  97.4717   5.0089 0007056 343.7033  16.3971 15.15977990 43354
LEMUR-2-KRYWE           
1 51100U 22003G   22300.39470499  .00045837  00000+0  11452-2 0  9997
2 51100  44.9867  58.8399 0009267 282.8194  77.1658 15.39453341 43871
LEMUR-2-TENNYSONLILY    
1 52732U 22057A   22299.29934826  .00008591  00000+0  47219-3 0  9990
2 52732  97.5338  52.1892 0009617  97.2986 262.9339 15.14299331 23217
LEMUR-2-VANDENDRIES     
1 52733U 22057B   22300.12994908  .00007041  00000+0  38845-3 0  9997
2 52733  97.5223  52.8629 0008760  89.3349 270.8886 15.14237583 23349
LEMUR-2-KAREN_B         
1 52736U 22057E   22300.05704188  .00011826  00000+0  64161-3 0  9997
2 52736  97.5208  52.7631 0007972  84.6947 275.5194 15.14682710 23332
LEMUR-2-HANCOM-1        
1 52740U 22057J   22300.53524019  .00009963  00000+0  54951-3 0  9993
2 52740  97.5403  53.6055 0011598  84.6310 275.6245 15.14113639 23402
LEMUR-2-MIMI1307        
1 52769U 22057AP  22298.83158681  .00004024  00000+0  22092-3 0  9995
2 52769  97.5384  52.1522 0015578  67.1921 293.0954 15.14607736 23160
